[{"OBJECT_NAME":"COSMOS 2251 DEB","OBJECT_ID":"1993-036BX","EPOCH":"2026-03-04T03:44:09.693600","MEAN_MOTION":14.78080955,"ECCENTRICITY":0.0041447,"INCLINATION":74.0302,"RA_OF_ASC_NODE":70.5899,"ARG_OF_PERICENTER":175.7767,"MEAN_ANOMALY":255.4817,"EPHEMERIS_TYPE":0,"CLASSIFICATION_TYPE":"U","NORAD_CAT_ID":33830,"ELEMENT_SET_NO":999,"REV_AT_EPOCH":90674,"BSTAR":0.0011013,"MEAN_MOTION_DOT":8.052e-5,"MEAN_MOTION_DDOT":0},{"OBJECT_NAME":"COSMOS 2251 DEB","OBJECT_ID":"1993-036BZ","EPOCH":"2026-03-03T10:08:04.160832","MEAN_MOTION":14.61882513,"ECCENTRICITY":0.00197027,"INCLINATION":74.0534,"RA_OF_ASC_NODE":55.8688,"ARG_OF_PERICENTER":63.6696,"MEAN_ANOMALY":96.4463,"EPHEMERIS_TYPE":0,"CLASSIFICATION_TYPE":"U","NORAD_CAT_ID":33832,"ELEMENT_SET_NO":999,"REV_AT_EPOCH":89603,"BSTAR":0.0017693582,"MEAN_MOTION_DOT":8.855e-5,"MEAN_MOTION_DDOT":0},{"OBJECT_NAME":"COSMOS 2251 DEB","OBJECT_ID":"1993-036CC","EPOCH":"2026-03-04T03:04:13.833696","MEAN_MOTION":14.63156955,"ECCENTRICITY":0.0054484,"INCLINATION":74.0576,"RA_OF_ASC_NODE":305.3262,"ARG_OF_PERICENTER":335.5698,"MEAN_ANOMALY":185.2374,"EPHEMERIS_TYPE":0,"CLASSIFICATION_TYPE":"U","NORAD_CAT_ID":33835,"ELEMENT_SET_NO":999,"REV_AT_EPOCH":89979,"BSTAR":0.00094864,"MEAN_MOTION_DOT":4.957e-5,"MEAN_MOTION_DDOT":0},{"OBJECT_NAME":"COSMOS 2251 DEB","OBJECT_ID":"1993-036CD","EPOCH":"2026-03-04T03:23:17.716128","MEAN_MOTION":14.81333391,"ECCENTRICITY":0.0027242,"INCLINATION":73.9948,"RA_OF_ASC_NODE":98.112,"ARG_OF_PERICENTER":287.0486,"MEAN_ANOMALY":129.5799,"EPHEMERIS_TYPE":0,"CLASSIFICATION_TYPE":"U","NORAD_CAT_ID":33836,"ELEMENT_SET_NO":999,"REV_AT_EPOCH":65293,"BSTAR":0.0016034,"MEAN_MOTION_DOT":0.0001259,"MEAN_MOTION_DDOT":0},{"OBJECT_NAME":"COSMOS 2251 DEB","OBJECT_ID":"1993-036CE","EPOCH":"2026-03-03T12:32:41.869248","MEAN_MOTION":14.50896857,"ECCENTRICITY":0.00334813,"INCLINATION":74.0096,"RA_OF_ASC_NODE":263.4829,"ARG_OF_PERICENTER":106.0339,"MEAN_ANOMALY":254.4514,"EPHEMERIS_TYPE":0,"CLASSIFICATION_TYPE":"U","NORAD_CAT_ID":33837,"ELEMENT_SET_NO":999,"REV_AT_EPOCH":89967,"BSTAR":0.00029441626,"MEAN_MOTION_DOT":1.142e-5,"MEAN_MOTION_DDOT":0},{"OBJECT_NAME":"COSMOS 2251 DEB","OBJECT_ID":"1993-036CF","EPOCH":"2026-03-04T04:20:21.852672","MEAN_MOTION":14.4865727,"ECCENTRICITY":0.0025163,"INCLINATION":74.0394,"RA_OF_ASC_NODE":357.2573,"ARG_OF_PERICENTER":100.5637,"MEAN_ANOMALY":16.9278,"EPHEMERIS_TYPE":0,"CLASSIFICATION_TYPE":"U","NORAD_CAT_ID":33838,"ELEMENT_SET_NO":999,"REV_AT_EPOCH":89748,"BSTAR":0.00055897,"MEAN_MOTION_DOT":2.086e-5,"MEAN_MOTION_DDOT":0},{"OBJECT_NAME":"COSMOS 2251 DEB","OBJECT_ID":"1993-036CG","EPOCH":"2026-03-03T00:25:41.325024","MEAN_MOTION":14.64703123,"ECCENTRICITY":0.00831869,"INCLINATION":74.0381,"RA_OF_ASC_NODE":52.1856,"ARG_OF_PERICENTER":145.4145,"MEAN_ANOMALY":271.9355,"EPHEMERIS_TYPE":0,"CLASSIFICATION_TYPE":"U","NORAD_CAT_ID":33839,"ELEMENT_SET_NO":999,"REV_AT_EPOCH":90755,"BSTAR":0.0002485052,"MEAN_MOTION_DOT":1.359e-5,"MEAN_MOTION_DDOT":0},{"OBJECT_NAME":"COSMOS 2251 DEB","OBJECT_ID":"1993-036CJ","EPOCH":"2026-03-03T20:57:24.252768","MEAN_MOTION":14.37990956,"ECCENTRICITY":0.0020963,"INCLINATION":74.0371,"RA_OF_ASC_NODE":128.6524,"ARG_OF_PERICENTER":197.5424,"MEAN_ANOMALY":284.2631,"EPHEMERIS_TYPE":0,"CLASSIFICATION_TYPE":"U","NORAD_CAT_ID":33841,"ELEMENT_SET_NO":999,"REV_AT_EPOCH":89280,"BSTAR":0.00024659,"MEAN_MOTION_DOT":7.21e-6,"MEAN_MOTION_DDOT":0},{"OBJECT_NAME":"COSMOS 2251 DEB","OBJECT_ID":"1993-036CK","EPOCH":"2026-03-04T03:36:45.320256","MEAN_MOTION":14.42907345,"ECCENTRICITY":0.0046213,"INCLINATION":74.0315,"RA_OF_ASC_NODE":68.5127,"ARG_OF_PERICENTER":159.4563,"MEAN_ANOMALY":200.8465,"EPHEMERIS_TYPE":0,"CLASSIFICATION_TYPE":"U","NORAD_CAT_ID":33842,"ELEMENT_SET_NO":999,"REV_AT_EPOCH":89511,"BSTAR":0.00034898,"MEAN_MOTION_DOT":1.155e-5,"MEAN_MOTION_DDOT":0},{"OBJECT_NAME":"COSMOS 2251 DEB","OBJECT_ID":"1993-036CM","EPOCH":"2026-03-03T22:21:53.946432","MEAN_MOTION":14.33943934,"ECCENTRICITY":0.0048849,"INCLINATION":74.064,"RA_OF_ASC_NODE":264.5183,"ARG_OF_PERICENTER":266.9203,"MEAN_ANOMALY":228.2334,"EPHEMERIS_TYPE":0,"CLASSIFICATION_TYPE":"U","NORAD_CAT_ID":33844,"ELEMENT_SET_NO":999,"REV_AT_EPOCH":88889,"BSTAR":0.00044078,"MEAN_MOTION_DOT":1.22e-5,"MEAN_MOTION_DDOT":0},{"OBJECT_NAME":"COSMOS 2251 DEB","OBJECT_ID":"1993-036CR","EPOCH":"2026-03-03T20:29:22.996032","MEAN_MOTION":14.44736834,"ECCENTRICITY":0.0043469,"INCLINATION":74.0309,"RA_OF_ASC_NODE":206.6324,"ARG_OF_PERICENTER":247.1164,"MEAN_ANOMALY":232.4068,"EPHEMERIS_TYPE":0,"CLASSIFICATION_TYPE":"U","NORAD_CAT_ID":33848,"ELEMENT_SET_NO":999,"REV_AT_EPOCH":89002,"BSTAR":0.0016521,"MEAN_MOTION_DOT":5.777e-5,"MEAN_MOTION_DDOT":0},{"OBJECT_NAME":"COSMOS 2251 DEB","OBJECT_ID":"1993-036CV","EPOCH":"2026-03-04T03:39:44.608896","MEAN_MOTION":14.23660364,"ECCENTRICITY":0.0113566,"INCLINATION":73.8036,"RA_OF_ASC_NODE":313.5,"ARG_OF_PERICENTER":329.4984,"MEAN_ANOMALY":183.557,"EPHEMERIS_TYPE":0,"CLASSIFICATION_TYPE":"U","NORAD_CAT_ID":33892,"ELEMENT_SET_NO":999,"REV_AT_EPOCH":88113,"BSTAR":0.00073083,"MEAN_MOTION_DOT":1.754e-5,"MEAN_MOTION_DDOT":0},{"OBJECT_NAME":"COSMOS 2251 DEB","OBJECT_ID":"1993-036CX","EPOCH":"2026-03-03T20:13:09.165216","MEAN_MOTION":13.21478597,"ECCENTRICITY":0.0572435,"INCLINATION":73.764,"RA_OF_ASC_NODE":223.5816,"ARG_OF_PERICENTER":131.4068,"MEAN_ANOMALY":233.7709,"EPHEMERIS_TYPE":0,"CLASSIFICATION_TYPE":"U","NORAD_CAT_ID":33894,"ELEMENT_SET_NO":999,"REV_AT_EPOCH":81779,"BSTAR":0.002836,"MEAN_MOTION_DOT":2.759e-5,"MEAN_MOTION_DDOT":0},{"OBJECT_NAME":"COSMOS 2251 DEB","OBJECT_ID":"1993-036CZ","EPOCH":"2026-03-03T20:50:47.668128","MEAN_MOTION":14.19322111,"ECCENTRICITY":0.0126192,"INCLINATION":73.7687,"RA_OF_ASC_NODE":9.3533,"ARG_OF_PERICENTER":172.5522,"MEAN_ANOMALY":219.247,"EPHEMERIS_TYPE":0,"CLASSIFICATION_TYPE":"U","NORAD_CAT_ID":33896,"ELEMENT_SET_NO":999,"REV_AT_EPOCH":87891,"BSTAR":0.00058253,"MEAN_MOTION_DOT":1.298e-5,"MEAN_MOTION_DDOT":0},{"OBJECT_NAME":"COSMOS 2251 DEB","OBJECT_ID":"1993-036DC","EPOCH":"2026-03-04T01:38:07.685664","MEAN_MOTION":14.61966659,"ECCENTRICITY":0.005703,"INCLINATION":74.0522,"RA_OF_ASC_NODE":290.2923,"ARG_OF_PERICENTER":330.1653,"MEAN_ANOMALY":180.3413,"EPHEMERIS_TYPE":0,"CLASSIFICATION_TYPE":"U","NORAD_CAT_ID":33899,"ELEMENT_SET_NO":999,"REV_AT_EPOCH":90027,"BSTAR":0.00066476,"MEAN_MOTION_DOT":3.379e-5,"MEAN_MOTION_DDOT":0},{"OBJECT_NAME":"COSMOS 2251 DEB","OBJECT_ID":"1993-036DD","EPOCH":"2026-03-04T02:06:45.328032","MEAN_MOTION":14.58742213,"ECCENTRICITY":0.0048423,"INCLINATION":74.0182,"RA_OF_ASC_NODE":204.8209,"ARG_OF_PERICENTER":333.9306,"MEAN_ANOMALY":146.1719,"EPHEMERIS_TYPE":0,"CLASSIFICATION_TYPE":"U","NORAD_CAT_ID":33900,"ELEMENT_SET_NO":999,"REV_AT_EPOCH":90222,"BSTAR":0.00062769,"MEAN_MOTION_DOT":2.949e-5,"MEAN_MOTION_DDOT":0}]
