COSMOS 2251 DEB         
1 33830U 93036BX  26063.15566775  .00008052  00000+0  11013-2 0  9999
2 33830  74.0302  70.5899 0041447 175.7767 255.4817 14.78080955906748
COSMOS 2251 DEB         
1 33832U 93036BZ  26062.42227038  .00008855  00000+0  17694-2 0  9998
2 33832  74.0534  55.8688 0019702  63.6696  96.4463 14.61882513896036
COSMOS 2251 DEB         
1 33835U 93036CC  26063.12793789  .00004957  00000+0  94864-3 0  9994
2 33835  74.0576 305.3262 0054484 335.5698 185.2374 14.63156955899795
COSMOS 2251 DEB         
1 33836U 93036CD  26063.14117727  .00012590  00000+0  16034-2 0  9993
2 33836  73.9948  98.1120 0027242 287.0486 129.5799 14.81333391652931
COSMOS 2251 DEB         
1 33837U 93036CE  26062.52270682  .00001142  00000+0  29442-3 0  9994
2 33837  74.0096 263.4829 0033481 106.0339 254.4514 14.50896857899674
COSMOS 2251 DEB         
1 33838U 93036CF  26063.18080848  .00002086  00000+0  55897-3 0  9992
2 33838  74.0394 357.2573 0025163 100.5637  16.9278 14.48657270897488
COSMOS 2251 DEB         
1 33839U 93036CG  26062.01783941  .00001359  00000+0  24851-3 0  9996
2 33839  74.0381  52.1856 0083186 145.4145 271.9355 14.64703123907557
COSMOS 2251 DEB         
1 33841U 93036CJ  26062.87319737  .00000721  00000+0  24659-3 0  9999
2 33841  74.0371 128.6524 0020963 197.5424 284.2631 14.37990956892809
COSMOS 2251 DEB         
1 33842U 93036CK  26063.15052454  .00001155  00000+0  34898-3 0  9990
2 33842  74.0315  68.5127 0046213 159.4563 200.8465 14.42907345895118
COSMOS 2251 DEB         
1 33844U 93036CM  26062.93187438  .00001220  00000+0  44078-3 0  9992
2 33844  74.0640 264.5183 0048849 266.9203 228.2334 14.33943934888893
COSMOS 2251 DEB         
1 33848U 93036CR  26062.85373838  .00005777  00000+0  16521-2 0  9990
2 33848  74.0309 206.6324 0043469 247.1164 232.4068 14.44736834890023
COSMOS 2251 DEB         
1 33892U 93036CV  26063.15259964  .00001754  00000+0  73083-3 0  9994
2 33892  73.8036 313.5000 0113566 329.4984 183.5570 14.23660364881132
COSMOS 2251 DEB         
1 33894U 93036CX  26062.84246719  .00002759  00000+0  28360-2 0  9998
2 33894  73.7640 223.5816 0572435 131.4068 233.7709 13.21478597817792
COSMOS 2251 DEB         
1 33896U 93036CZ  26062.86860727  .00001298  00000+0  58253-3 0  9995
2 33896  73.7687   9.3533 0126192 172.5522 219.2470 14.19322111878910
COSMOS 2251 DEB         
1 33899U 93036DC  26063.06814451  .00003379  00000+0  66476-3 0  9992
2 33899  74.0522 290.2923 0057030 330.1653 180.3413 14.61966659900278
COSMOS 2251 DEB         
1 33900U 93036DD  26063.08802463  .00002949  00000+0  62769-3 0  9990
2 33900  74.0182 204.8209 0048423 333.9306 146.1719 14.58742213902223
